{
  "type": "FeatureCollection",
  "features": [
    {
      "type": "Feature",
      "properties": {
        "norad_id": 28054,
        "name": "DMSP 5D-3 F16 (USA 172)",
        "group": "weather",
        "lat": -78.18085008357762,
        "lon": 51.32887146051629,
        "alt_km": 848.5185955517009,
        "timestamp": "2025-12-10T14:53:36.768457+00:00",
        "meta_object_name": "DMSP 5D-3 F16 (USA 172)",
        "meta_object_id": "2003-048A",
        "meta_epoch": "2025-12-10T07:44:09.000096",
        "meta_mean_motion": 14.14422964,
        "meta_eccentricity": 0.00065771,
        "meta_inclination": 99.0048,
        "meta_ra_of_asc_node": 1.7603,
        "meta_arg_of_pericenter": 328.4191,
        "meta_mean_anomaly": 231.5749,
        "meta_ephemeris_type": 0,
        "meta_classification_type": "U",
        "meta_norad_cat_id": 28054,
        "meta_element_set_no": 999,
        "meta_rev_at_epoch": 14278,
        "meta_bstar": 0.00014000813,
        "meta_mean_motion_dot": 2.23e-06,
        "meta_mean_motion_ddot": 0,
        "tle_line1": "1 28054U 03048A   25344.32232639  .00000223  00000+0  14001-3 0  9997",
        "tle_line2": "2 28054  99.0048   1.7603 0006577 328.4191 231.5749 14.14422964142781"
      },
      "geometry": {
        "type": "Point",
        "coordinates": [
          51.32887146051629,
          -78.18085008357762
        ]
      }
    },
    {
      "type": "Feature",
      "properties": {
        "norad_id": 28912,
        "name": "METEOSAT-9 (MSG-2)",
        "group": "weather",
        "lat": -8.242163470574967,
        "lon": -11.060983226350656,
        "alt_km": 35789.66113463597,
        "timestamp": "2025-12-10T14:53:36.768504+00:00",
        "meta_object_name": "METEOSAT-9 (MSG-2)",
        "meta_object_id": "2005-049B",
        "meta_epoch": "2025-12-09T20:38:15.300384",
        "meta_mean_motion": 1.00274858,
        "meta_eccentricity": 0.0003774,
        "meta_inclination": 8.9334,
        "meta_ra_of_asc_node": 56.0037,
        "meta_arg_of_pericenter": 190.0856,
        "meta_mean_anomaly": 187.9557,
        "meta_ephemeris_type": 0,
        "meta_classification_type": "U",
        "meta_norad_cat_id": 28912,
        "meta_element_set_no": 999,
        "meta_rev_at_epoch": 510,
        "meta_bstar": 0,
        "meta_mean_motion_dot": 1.24e-06,
        "meta_mean_motion_ddot": 0,
        "tle_line1": "1 28912U 05049B   25343.85989931  .00000124  00000+0  00000+0 0  9994",
        "tle_line2": "2 28912   8.9334  56.0037 0003774 190.0856 187.9557  1.00274858  5105"
      },
      "geometry": {
        "type": "Point",
        "coordinates": [
          -11.060983226350656,
          -8.242163470574967
        ]
      }
    },
    {
      "type": "Feature",
      "properties": {
        "norad_id": 29522,
        "name": "DMSP 5D-3 F17 (USA 191)",
        "group": "weather",
        "lat": -34.02346692265195,
        "lon": 164.0930830444068,
        "alt_km": 842.3070722638267,
        "timestamp": "2025-12-10T14:53:36.768519+00:00",
        "meta_object_name": "DMSP 5D-3 F17 (USA 191)",
        "meta_object_id": "2006-050A",
        "meta_epoch": "2025-12-10T07:05:39.324192",
        "meta_mean_motion": 14.14917906,
        "meta_eccentricity": 0.00093097,
        "meta_inclination": 98.7394,
        "meta_ra_of_asc_node": 349.7356,
        "meta_arg_of_pericenter": 232.4705,
        "meta_mean_anomaly": 127.5623,
        "meta_ephemeris_type": 0,
        "meta_classification_type": "U",
        "meta_norad_cat_id": 29522,
        "meta_element_set_no": 999,
        "meta_rev_at_epoch": 98570,
        "meta_bstar": 0.00016712354,
        "meta_mean_motion_dot": 2.8e-06,
        "meta_mean_motion_ddot": 0,
        "tle_line1": "1 29522U 06050A   25344.29559403  .00000280  00000+0  16712-3 0  9995",
        "tle_line2": "2 29522  98.7394 349.7356 0009309 232.4705 127.5623 14.14917906985700"
      },
      "geometry": {
        "type": "Point",
        "coordinates": [
          164.0930830444068,
          -34.02346692265195
        ]
      }
    },
    {
      "type": "Feature",
      "properties": {
        "norad_id": 32958,
        "name": "FENGYUN 3A",
        "group": "weather",
        "lat": -71.30851571753865,
        "lon": 77.38538326092028,
        "alt_km": 831.7174134255629,
        "timestamp": "2025-12-10T14:53:36.768530+00:00",
        "meta_object_name": "FENGYUN 3A",
        "meta_object_id": "2008-026A",
        "meta_epoch": "2025-12-10T06:56:10.491648",
        "meta_mean_motion": 14.19513325,
        "meta_eccentricity": 0.00080073,
        "meta_inclination": 98.6695,
        "meta_ra_of_asc_node": 283.8675,
        "meta_arg_of_pericenter": 318.1334,
        "meta_mean_anomaly": 41.9229,
        "meta_ephemeris_type": 0,
        "meta_classification_type": "U",
        "meta_norad_cat_id": 32958,
        "meta_element_set_no": 999,
        "meta_rev_at_epoch": 90860,
        "meta_bstar": 0.00011946709,
        "meta_mean_motion_dot": 2.08e-06,
        "meta_mean_motion_ddot": 0,
        "tle_line1": "1 32958U 08026A   25344.28901032  .00000208  00000+0  11947-3 0  9990",
        "tle_line2": "2 32958  98.6695 283.8675 0008007 318.1334  41.9229 14.19513325908603"
      },
      "geometry": {
        "type": "Point",
        "coordinates": [
          77.38538326092028,
          -71.30851571753865
        ]
      }
    },
    {
      "type": "Feature",
      "properties": {
        "norad_id": 35491,
        "name": "GOES 14",
        "group": "weather",
        "lat": 1.1173092147042152,
        "lon": -165.32670962097788,
        "alt_km": 35773.733746742524,
        "timestamp": "2025-12-10T14:53:36.768542+00:00",
        "meta_object_name": "GOES 14",
        "meta_object_id": "2009-033A",
        "meta_epoch": "2025-12-10T02:20:46.762080",
        "meta_mean_motion": 1.00273291,
        "meta_eccentricity": 0.00039972,
        "meta_inclination": 1.1929,
        "meta_ra_of_asc_node": 85.4374,
        "meta_arg_of_pericenter": 154.9419,
        "meta_mean_anomaly": 125.598,
        "meta_ephemeris_type": 0,
        "meta_classification_type": "U",
        "meta_norad_cat_id": 35491,
        "meta_element_set_no": 999,
        "meta_rev_at_epoch": 469,
        "meta_bstar": 0,
        "meta_mean_motion_dot": -6.5e-07,
        "meta_mean_motion_ddot": 0,
        "tle_line1": "1 35491U 09033A   25344.09776345 -.00000065  00000+0  00000+0 0  9996",
        "tle_line2": "2 35491   1.1929  85.4374 0003997 154.9419 125.5980  1.00273291  4692"
      },
      "geometry": {
        "type": "Point",
        "coordinates": [
          -165.32670962097788,
          1.1173092147042152
        ]
      }
    },
    {
      "type": "Feature",
      "properties": {
        "norad_id": 35951,
        "name": "DMSP 5D-3 F18 (USA 210)",
        "group": "weather",
        "lat": 78.67260128275936,
        "lon": -90.29594475016256,
        "alt_km": 827.2971749012304,
        "timestamp": "2025-12-10T14:53:36.768553+00:00",
        "meta_object_name": "DMSP 5D-3 F18 (USA 210)",
        "meta_object_id": "2009-057A",
        "meta_epoch": "2025-12-10T06:01:01.285248",
        "meta_mean_motion": 14.14766938,
        "meta_eccentricity": 0.00120915,
        "meta_inclination": 98.8832,
        "meta_ra_of_asc_node": 320.664,
        "meta_arg_of_pericenter": 69.258,
        "meta_mean_anomaly": 290.9887,
        "meta_ephemeris_type": 0,
        "meta_classification_type": "U",
        "meta_norad_cat_id": 35951,
        "meta_element_set_no": 999,
        "meta_rev_at_epoch": 83287,
        "meta_bstar": 0.00024483461,
        "meta_mean_motion_dot": 4.28e-06,
        "meta_mean_motion_ddot": 0,
        "tle_line1": "1 35951U 09057A   25344.25070932  .00000428  00000+0  24483-3 0  9997",
        "tle_line2": "2 35951  98.8832 320.6640 0012091  69.2580 290.9887 14.14766938832877"
      },
      "geometry": {
        "type": "Point",
        "coordinates": [
          -90.29594475016256,
          78.67260128275936
        ]
      }
    },
    {
      "type": "Feature",
      "properties": {
        "norad_id": 36411,
        "name": "EWS-G2 (GOES 15)",
        "group": "weather",
        "lat": -0.7926049252308082,
        "lon": 4.486411815150323,
        "alt_km": 35793.24624974152,
        "timestamp": "2025-12-10T14:53:36.768564+00:00",
        "meta_object_name": "EWS-G2 (GOES 15)",
        "meta_object_id": "2010-008A",
        "meta_epoch": "2025-12-10T01:58:51.583008",
        "meta_mean_motion": 1.00269219,
        "meta_eccentricity": 0.00058926,
        "meta_inclination": 0.8075,
        "meta_ra_of_asc_node": 86.0538,
        "meta_arg_of_pericenter": 173.5819,
        "meta_mean_anomaly": 270.5727,
        "meta_ephemeris_type": 0,
        "meta_classification_type": "U",
        "meta_norad_cat_id": 36411,
        "meta_element_set_no": 999,
        "meta_rev_at_epoch": 5774,
        "meta_bstar": 0,
        "meta_mean_motion_dot": 4.1e-07,
        "meta_mean_motion_ddot": 0,
        "tle_line1": "1 36411U 10008A   25344.08254147  .00000041  00000+0  00000+0 0  9996",
        "tle_line2": "2 36411   0.8075  86.0538 0005892 173.5819 270.5727  1.00269219 57748"
      },
      "geometry": {
        "type": "Point",
        "coordinates": [
          4.486411815150323,
          -0.7926049252308082
        ]
      }
    }
  ]
}